{"type": "Feature", "properties": {"source": "OpenStreetMap (Overpass, natural=water relation)", "lake_id": "lake_garda", "retrieved": "2026-09-18", "note": "Phase 6 multi-lake shoreline; simplified ~40 m"}, "geometry": {"type": "Polygon", "coordinates": [[[10.5110283, 45.499902], [10.5125867, 45.5023742], [10.5172346, 45.5065648], [10.5220329, 45.5093263], [10.5360996, 45.5198538], [10.537246, 45.5204553], [10.5385944, 45.5202493], [10.5399681, 45.5213278], [10.5395771, 45.5215109], [10.5401465, 45.5222135], [10.5419576, 45.5231919], [10.5447587, 45.5237117], [10.5582583, 45.5297452], [10.5590871, 45.5308951], [10.5570153, 45.5338148], [10.5569769, 45.5360966], [10.5578167, 45.5367933], [10.5577057, 45.5383217], [10.5602156, 45.5412235], [10.5626509, 45.5422827], [10.5640542, 45.5439804], [10.5652979, 45.5442941], [10.5666096, 45.5436738], [10.5688933, 45.5454702], [10.5737933, 45.5477187], [10.5775505, 45.5509325], [10.5784907, 45.5528156], [10.5781448, 45.55385], [10.5781907, 45.5569757], [10.576909, 45.5588747], [10.571573, 45.5596288], [10.5676848, 45.5625516], [10.5686544, 45.5635897], [10.5684889, 45.5644198], [10.5694923, 45.5651631], [10.5698598, 45.5667431], [10.5650483, 45.5635359], [10.5603276, 45.5617025], [10.5583711, 45.5629456], [10.5584375, 45.5640462], [10.5577448, 45.5648143], [10.5551216, 45.5643404], [10.5521458, 45.5659047], [10.549359, 45.5691418], [10.5485121, 45.5718778], [10.5515216, 45.5741577], [10.5516103, 45.5749094], [10.5531724, 45.5754203], [10.5536733, 45.5769966], [10.555927, 45.5779045], [10.5554963, 45.5780975], [10.5558228, 45.5786996], [10.5577458, 45.5802334], [10.5619633, 45.5809175], [10.5649197, 45.5836963], [10.5694239, 45.5837623], [10.5717598, 45.5875869], [10.5791447, 45.5900839], [10.5751304, 45.5889404], [10.5735144, 45.5898344], [10.571149, 45.5898849], [10.5673133, 45.5936088], [10.5678683, 45.5967646], [10.5672194, 45.5978699], [10.5646054, 45.5996739], [10.555418, 45.6004671], [10.5536221, 45.6013333], [10.5519229, 45.6002271], [10.5465255, 45.6007036], [10.540118, 45.6001205], [10.5322798, 45.5978756], [10.5267933, 45.5974533], [10.5245738, 45.5967083], [10.5208099, 45.5969354], [10.5196923, 45.5979201], [10.5190206, 45.5999975], [10.5207461, 45.601215], [10.5199475, 45.6031621], [10.5221068, 45.6036827], [10.522999, 45.604713], [10.522425, 45.6045866], [10.5219033, 45.6046066], [10.5239644, 45.6051383], [10.5248087, 45.6065785], [10.5330154, 45.6063907], [10.5378396, 45.6101114], [10.5453676, 45.6130806], [10.5529556, 45.6127686], [10.5568005, 45.6140806], [10.5566503, 45.6158545], [10.5578775, 45.6170344], [10.5576513, 45.6166809], [10.5652026, 45.6192027], [10.5681921, 45.6211649], [10.5732699, 45.623239], [10.5758392, 45.6251821], [10.5800369, 45.6257049], [10.5845756, 45.6252271], [10.5878758, 45.6261261], [10.5882832, 45.6270347], [10.5873576, 45.6291967], [10.5877215, 45.6303008], [10.5972406, 45.6354853], [10.5991886, 45.6354727], [10.5995956, 45.6346686], [10.5991503, 45.6336863], [10.6067853, 45.6305997], [10.6133863, 45.6309514], [10.6167538, 45.632314], [10.6172852, 45.6352283], [10.6184466, 45.6355541], [10.6181543, 45.6368819], [10.6204766, 45.6384035], [10.6201042, 45.6392205], [10.6206298, 45.6425396], [10.618601, 45.6449537], [10.6190932, 45.6459315], [10.6186776, 45.6461104], [10.6193088, 45.6458989], [10.6193116, 45.6454245], [10.619448, 45.6466727], [10.6258197, 45.649942], [10.6299184, 45.6532204], [10.6349516, 45.6557114], [10.6390198, 45.6592102], [10.6445386, 45.6621067], [10.6444483, 45.6628638], [10.6456766, 45.6643112], [10.6507783, 45.6678239], [10.6529385, 45.6707766], [10.6538378, 45.6707173], [10.6535872, 45.6719623], [10.6540122, 45.6719616], [10.6525264, 45.6736348], [10.6534578, 45.6751185], [10.6528852, 45.6759642], [10.6542228, 45.6786446], [10.6547555, 45.6786103], [10.6544241, 45.6794143], [10.655131, 45.6808223], [10.6580858, 45.6826058], [10.6605524, 45.6866203], [10.6662753, 45.6885168], [10.668422, 45.6906299], [10.6697485, 45.6933262], [10.6739474, 45.694751], [10.6826217, 45.7005694], [10.6888169, 45.7056405], [10.6976426, 45.7097786], [10.706445, 45.7174541], [10.7097433, 45.7220964], [10.7136401, 45.7255473], [10.7165933, 45.7260482], [10.7176758, 45.7277487], [10.7200834, 45.7279465], [10.7207803, 45.7290302], [10.7262464, 45.7312899], [10.7325674, 45.734678], [10.7328655, 45.7353882], [10.7351631, 45.7357889], [10.7367484, 45.7387318], [10.7384551, 45.739578], [10.7400743, 45.7421084], [10.7465771, 45.7483682], [10.7475504, 45.7506423], [10.7490952, 45.7507596], [10.7521263, 45.7541531], [10.7499101, 45.7577153], [10.7529387, 45.7602643], [10.7533227, 45.7612655], [10.7586461, 45.7644144], [10.7639564, 45.770261], [10.7661396, 45.7712705], [10.7672434, 45.7740692], [10.7679416, 45.7740169], [10.7685463, 45.7757212], [10.7700217, 45.7772002], [10.7743441, 45.7807805], [10.7771378, 45.7817121], [10.7778974, 45.7834377], [10.777431, 45.7846516], [10.7778452, 45.7866434], [10.7771781, 45.7875415], [10.7830222, 45.7962134], [10.783672, 45.8000088], [10.7866688, 45.8007346], [10.7886469, 45.805193], [10.7938192, 45.809165], [10.7943123, 45.8117401], [10.7938356, 45.813629], [10.7942404, 45.8131783], [10.7929936, 45.8162337], [10.7968969, 45.8177493], [10.7981081, 45.8193769], [10.8000381, 45.8202909], [10.8047973, 45.8212804], [10.8060067, 45.8223297], [10.8090477, 45.8233341], [10.8127529, 45.8238966], [10.8176529, 45.826894], [10.8223627, 45.8281974], [10.823059, 45.830338], [10.8247671, 45.831825], [10.8255851, 45.8334931], [10.8262852, 45.8416689], [10.8275406, 45.8437982], [10.8301929, 45.8457917], [10.8324195, 45.8519869], [10.8344125, 45.854635], [10.8326214, 45.8588496], [10.8330314, 45.8604688], [10.8326273, 45.8611093], [10.8351236, 45.8663386], [10.8354052, 45.8677658], [10.8348448, 45.8694168], [10.8377608, 45.8717533], [10.8381996, 45.8753782], [10.83932, 45.8777101], [10.8383309, 45.8784696], [10.8380262, 45.8797924], [10.839399, 45.8840028], [10.8390013, 45.8846338], [10.8410931, 45.8837613], [10.8417714, 45.8847734], [10.8429685, 45.8848092], [10.8427601, 45.8829356], [10.8457713, 45.8828322], [10.8451234, 45.8812654], [10.8489529, 45.8812328], [10.8489276, 45.8803906], [10.8501968, 45.8806984], [10.8498053, 45.8802312], [10.8503479, 45.8799178], [10.851427, 45.879986], [10.8553124, 45.8785515], [10.8553885, 45.8778202], [10.8569778, 45.8768324], [10.8591113, 45.8762877], [10.8649108, 45.8767979], [10.866772, 45.8754762], [10.8665264, 45.8748021], [10.8675134, 45.8748287], [10.8659927, 45.8746435], [10.8660992, 45.8741399], [10.8651383, 45.8737046], [10.8664268, 45.8734077], [10.8671789, 45.8726588], [10.866647, 45.8724845], [10.8692525, 45.8721754], [10.8729443, 45.8693298], [10.8765084, 45.8684488], [10.8767208, 45.8670204], [10.8752143, 45.8648449], [10.8747823, 45.865042], [10.8761637, 45.8629527], [10.8750169, 45.8623017], [10.8756626, 45.8610876], [10.871157, 45.8578758], [10.8665864, 45.8530694], [10.8645098, 45.8520419], [10.8620917, 45.8490392], [10.8635637, 45.8481524], [10.8622988, 45.8456621], [10.8633062, 45.8443111], [10.8604933, 45.8396651], [10.8598073, 45.8398552], [10.8596842, 45.8376891], [10.8587935, 45.8368963], [10.8583511, 45.8352418], [10.8596515, 45.8348076], [10.8600562, 45.8336783], [10.856555, 45.8275934], [10.8574793, 45.8265021], [10.8565813, 45.8258676], [10.8575382, 45.824832], [10.8567699, 45.8217516], [10.8548815, 45.8165924], [10.852076, 45.8126853], [10.8523622, 45.8116328], [10.851579, 45.8099567], [10.8476676, 45.8086822], [10.846163, 45.8060791], [10.8379214, 45.8010941], [10.8371144, 45.7997904], [10.8374668, 45.7984546], [10.8349184, 45.7964728], [10.834076, 45.7944944], [10.8328572, 45.7933933], [10.8238696, 45.7891155], [10.8221074, 45.7892838], [10.8212517, 45.7883773], [10.8218569, 45.7875228], [10.819191, 45.7851018], [10.8156101, 45.7775526], [10.8132724, 45.7748768], [10.8135729, 45.7744666], [10.8105362, 45.7691283], [10.8107569, 45.7677456], [10.8101707, 45.7669713], [10.8077146, 45.766474], [10.8066972, 45.7645697], [10.807374, 45.7635835], [10.8067602, 45.7637823], [10.8071162, 45.7628452], [10.8064554, 45.7611476], [10.8072308, 45.7595607], [10.8067643, 45.7575106], [10.8033918, 45.7548556], [10.7994247, 45.7546605], [10.7968007, 45.75237], [10.7953008, 45.7519821], [10.7951738, 45.7478316], [10.7978546, 45.748788], [10.7991817, 45.7478673], [10.7998555, 45.746426], [10.7955845, 45.740659], [10.7952264, 45.7393853], [10.7934, 45.738414], [10.7907055, 45.7352379], [10.7887925, 45.7346653], [10.7865832, 45.7316571], [10.7815868, 45.730013], [10.7807445, 45.72775], [10.780816, 45.7230666], [10.7770393, 45.7198703], [10.7739567, 45.7184061], [10.7727151, 45.7165547], [10.77019, 45.7147335], [10.7678186, 45.7118003], [10.7669735, 45.7090675], [10.7652827, 45.7065194], [10.7520688, 45.6908811], [10.747897, 45.684686], [10.7435388, 45.680328], [10.7409443, 45.6787509], [10.7379797, 45.6741262], [10.7280714, 45.6632786], [10.7252219, 45.658623], [10.7234385, 45.6570359], [10.7206346, 45.6509381], [10.718291, 45.6488015], [10.7157777, 45.6478565], [10.7130882, 45.6442603], [10.7081983, 45.6413918], [10.7066245, 45.6389714], [10.7037438, 45.6363392], [10.6979227, 45.6258933], [10.696626, 45.6223486], [10.6937038, 45.6184531], [10.6915916, 45.6140858], [10.6876569, 45.6138041], [10.6861274, 45.611949], [10.6851929, 45.609114], [10.6843409, 45.6086915], [10.6848816, 45.6081438], [10.684644, 45.6065039], [10.6858757, 45.6048806], [10.6850586, 45.5993806], [10.6810436, 45.5941381], [10.6776412, 45.5911938], [10.6741597, 45.5856821], [10.6736754, 45.5839143], [10.6741027, 45.5820778], [10.6722984, 45.5780774], [10.6732413, 45.5769776], [10.6736303, 45.5750179], [10.6728628, 45.574571], [10.6714399, 45.574986], [10.6711058, 45.5729268], [10.6719594, 45.5724779], [10.6779525, 45.5728061], [10.6801357, 45.5750017], [10.6845138, 45.5770112], [10.6907002, 45.5786777], [10.6935291, 45.5783479], [10.6971763, 45.576748], [10.7016299, 45.5774036], [10.7064134, 45.5752139], [10.7071823, 45.5746157], [10.707003, 45.5733596], [10.7091305, 45.5723183], [10.7082387, 45.5687448], [10.7096028, 45.5665952], [10.7092923, 45.5658885], [10.7138225, 45.5608595], [10.7163091, 45.5566217], [10.7171721, 45.5539005], [10.7174862, 45.5508289], [10.7147391, 45.5494385], [10.717361, 45.5488888], [10.7194365, 45.5467283], [10.7187391, 45.5463977], [10.7183379, 45.5471131], [10.7181831, 45.5468991], [10.7188864, 45.5461348], [10.7192221, 45.5465267], [10.7200015, 45.5454185], [10.7190041, 45.5433644], [10.7217035, 45.543308], [10.7236991, 45.5422986], [10.726251, 45.5380164], [10.7266956, 45.5333603], [10.7259092, 45.5303311], [10.7247185, 45.5302082], [10.7256743, 45.5302396], [10.7257536, 45.5297877], [10.7251319, 45.5300486], [10.7269641, 45.5260849], [10.727398, 45.5207871], [10.7306823, 45.5131949], [10.7313319, 45.5079337], [10.7306773, 45.5059769], [10.7315158, 45.5036527], [10.7305558, 45.5029719], [10.7311581, 45.5019632], [10.7318288, 45.5021868], [10.7329456, 45.499534], [10.7323114, 45.4962018], [10.7298687, 45.4935295], [10.7284352, 45.4930426], [10.7281462, 45.4906972], [10.72572, 45.4881642], [10.7228786, 45.4835255], [10.717754, 45.4781694], [10.7162975, 45.4782406], [10.71549, 45.4767613], [10.7174178, 45.4764569], [10.7158105, 45.4745541], [10.7139273, 45.4690612], [10.7125847, 45.4680314], [10.7111685, 45.468233], [10.7100813, 45.4675676], [10.7123745, 45.4670724], [10.7103675, 45.4630015], [10.7059672, 45.4591374], [10.70475, 45.4590599], [10.7025347, 45.4577148], [10.7028517, 45.4573878], [10.7020981, 45.4567919], [10.697859, 45.4547154], [10.6978863, 45.4532335], [10.6974286, 45.4529642], [10.6970794, 45.452529], [10.6975176, 45.4529204], [10.6978927, 45.4528244], [10.697669, 45.452404], [10.6973995, 45.4524537], [10.695271, 45.4481901], [10.6931253, 45.4472649], [10.6949392, 45.4475572], [10.6955374, 45.4468936], [10.6939383, 45.4445955], [10.6949789, 45.4436437], [10.6935468, 45.4420035], [10.6902125, 45.4403469], [10.6870471, 45.4422234], [10.6838974, 45.4451344], [10.6735874, 45.448173], [10.6719693, 45.4498345], [10.671947, 45.4509559], [10.6682548, 45.4528042], [10.6598555, 45.4541837], [10.6596291, 45.4537717], [10.6561863, 45.4544895], [10.6558151, 45.454106], [10.6559626, 45.4545081], [10.6531763, 45.4548366], [10.6526259, 45.4544298], [10.6487353, 45.4552644], [10.6467336, 45.4567319], [10.6457934, 45.456277], [10.6441463, 45.4567227], [10.6406704, 45.4604321], [10.6400903, 45.4602543], [10.6402711, 45.4626836], [10.6394163, 45.4627027], [10.6387284, 45.4638218], [10.637324, 45.4637485], [10.6371263, 45.4630488], [10.6334204, 45.4614699], [10.6294422, 45.4614202], [10.6290895, 45.4609276], [10.6286622, 45.4614951], [10.6249433, 45.4620003], [10.6251607, 45.4626705], [10.6220221, 45.4623319], [10.6210184, 45.463082], [10.6172923, 45.4635726], [10.6161211, 45.4643117], [10.6166115, 45.4643371], [10.6133559, 45.4653981], [10.61248, 45.4660287], [10.6122326, 45.4675898], [10.610873, 45.4696871], [10.6115615, 45.4714189], [10.6110589, 45.4725272], [10.6115435, 45.4726665], [10.6115181, 45.4767057], [10.6099233, 45.4794781], [10.6092754, 45.4821621], [10.6092445, 45.4834778], [10.6100367, 45.4833661], [10.6098591, 45.4842381], [10.6105767, 45.4853376], [10.610665, 45.4879751], [10.6113888, 45.4882765], [10.6106462, 45.4880923], [10.6105941, 45.4887054], [10.611599, 45.4891097], [10.6094289, 45.490303], [10.6093681, 45.491685], [10.6087072, 45.492052], [10.6072543, 45.4913666], [10.6085832, 45.4864612], [10.6084765, 45.4856129], [10.6082867, 45.4854687], [10.6082985, 45.485161], [10.6078989, 45.4850278], [10.6081881, 45.4848641], [10.6077693, 45.4820198], [10.6083063, 45.4811514], [10.6072799, 45.4798299], [10.6080245, 45.4790397], [10.6080257, 45.4778863], [10.6052508, 45.4744098], [10.6012869, 45.4737448], [10.6000096, 45.472442], [10.5978301, 45.4719932], [10.5977102, 45.4710647], [10.5957076, 45.4698797], [10.5955377, 45.469], [10.5921961, 45.4671364], [10.5911116, 45.4655315], [10.5914802, 45.4648834], [10.5883044, 45.4636937], [10.5872479, 45.4624551], [10.5837086, 45.4610604], [10.5783792, 45.4612071], [10.5770684, 45.4604951], [10.5738602, 45.4602782], [10.5697294, 45.4610868], [10.5676139, 45.4623287], [10.5684756, 45.4623788], [10.5628594, 45.4627413], [10.5453936, 45.4677824], [10.5431307, 45.4700657], [10.5447602, 45.4708005], [10.5413141, 45.4716719], [10.5384058, 45.4748631], [10.5382844, 45.4757988], [10.5396818, 45.4774233], [10.5390124, 45.4790211], [10.5396637, 45.4832836], [10.5392599, 45.484608], [10.5399957, 45.4871012], [10.5394672, 45.4877569], [10.5375596, 45.4872432], [10.534147, 45.4886776], [10.530276, 45.4889939], [10.5228912, 45.4877188], [10.521508, 45.4880613], [10.5122486, 45.4952357], [10.512776, 45.4963649], [10.5113921, 45.4977854], [10.5123784, 45.4980852], [10.5110676, 45.4986304], [10.5110283, 45.499902]], [[10.559122, 45.5313611], [10.559177, 45.5313085], [10.5591823, 45.5313235], [10.559122, 45.5313611]], [[10.5706549, 45.5682186], [10.571923, 45.5682085], [10.5724208, 45.5691712], [10.5706549, 45.5682186]], [[10.5717847, 45.5596583], [10.5718383, 45.5596029], [10.571837, 45.5596348], [10.5717847, 45.5596583]], [[10.5721661, 45.57001], [10.5722974, 45.5693967], [10.5724034, 45.5699974], [10.5721661, 45.57001]], [[10.5742324, 45.5713684], [10.5742968, 45.5713684], [10.574278, 45.5714078], [10.5742324, 45.5713684]], [[10.5743182, 45.5714078], [10.5743589, 45.5714082], [10.5743531, 45.5714322], [10.5743182, 45.5714078]], [[10.5743853, 45.5714886], [10.574455, 45.5714529], [10.5744604, 45.5714904], [10.5743853, 45.5714886]], [[10.5782259, 45.5543558], [10.5784029, 45.5543764], [10.5782138, 45.5544187], [10.5782259, 45.5543558]], [[10.5812892, 45.5915455], [10.5857268, 45.5923678], [10.5870107, 45.5934637], [10.592671, 45.5921947], [10.5923641, 45.5929804], [10.5873108, 45.5940464], [10.5812892, 45.5915455]], [[10.6005398, 45.4967409], [10.6053533, 45.4941812], [10.6071329, 45.4917449], [10.608346, 45.492007], [10.6080508, 45.4924809], [10.608579, 45.4926153], [10.6094207, 45.4925648], [10.6083807, 45.4944072], [10.6088053, 45.4971283], [10.6074937, 45.4984031], [10.608085, 45.5009265], [10.6070632, 45.5025243], [10.6056825, 45.5023821], [10.6039778, 45.5004903], [10.6038894, 45.4995632], [10.60235, 45.4988147], [10.6022165, 45.4980314], [10.6005398, 45.4967409]], [[10.607581, 45.4811055], [10.6078535, 45.4808197], [10.6079393, 45.481077], [10.607581, 45.4811055]], [[10.6079794, 45.4846135], [10.6078351, 45.4841186], [10.6080886, 45.4842155], [10.6079794, 45.4846135]], [[10.6077629, 45.4850321], [10.6077893, 45.4849202], [10.6081304, 45.4848796], [10.6078841, 45.4850372], [10.607997, 45.4851752], [10.6077629, 45.4850321]], [[10.607832, 45.4853643], [10.6082116, 45.4852797], [10.6082611, 45.4854973], [10.6083362, 45.4855251], [10.607832, 45.4853643]], [[10.6079428, 45.4857136], [10.6084114, 45.4856082], [10.6085577, 45.4863138], [10.6082908, 45.4862958], [10.6079428, 45.4857136]], [[10.6087751, 45.4924981], [10.6084249, 45.4920734], [10.6088195, 45.492117], [10.6087751, 45.4924981]], [[10.6094639, 45.4924995], [10.6093859, 45.4924173], [10.6094756, 45.492423], [10.6094639, 45.4924995]], [[10.6094493, 45.4832418], [10.6094433, 45.483092], [10.6095549, 45.4831636], [10.6094493, 45.4832418]], [[10.6094461, 45.4919838], [10.6095349, 45.4920361], [10.6094631, 45.4920392], [10.6094461, 45.4919838]], [[10.610214, 45.4845592], [10.6103796, 45.4842442], [10.6106579, 45.4845133], [10.610214, 45.4845592]], [[10.697527, 45.4529092], [10.6974067, 45.452478], [10.6976636, 45.4524125], [10.6978793, 45.4528169], [10.697527, 45.4529092]], [[10.7320949, 45.5014865], [10.7320896, 45.5012581], [10.7322103, 45.5012224], [10.7320949, 45.5014865]], [[10.7759034, 45.7301622], [10.7775655, 45.7312433], [10.7779418, 45.7319845], [10.776845, 45.7313832], [10.7759034, 45.7301622]], [[10.793777, 45.7467448], [10.7948371, 45.7474021], [10.7952865, 45.7475189], [10.7945221, 45.7478251], [10.793777, 45.7467448]], [[10.7948662, 45.7547935], [10.7952512, 45.7542833], [10.7952653, 45.7548437], [10.7948662, 45.7547935]], [[10.8417184, 45.8836474], [10.8426951, 45.8834652], [10.8426922, 45.8846422], [10.8418872, 45.8846477], [10.8417184, 45.8836474]], [[10.8513671, 45.879616], [10.8512942, 45.8792294], [10.8522767, 45.8795113], [10.8513671, 45.879616]], [[10.8624895, 45.8434037], [10.8624834, 45.843318], [10.8625603, 45.8433316], [10.8624895, 45.8434037]]]}}