{"type": "Feature", "properties": {"source": "OpenStreetMap (Overpass, natural=water relation)", "lake_id": "lake_bracciano", "retrieved": "2026-09-23", "note": "Phase 6 4th-lake shoreline; simplified ~40 m"}, "geometry": {"type": "Polygon", "coordinates": [[[12.2686977, 42.0944562], [12.2680422, 42.0918549], [12.2659026, 42.09122], [12.249657, 42.0908116], [12.2467505, 42.084808], [12.2430935, 42.0819219], [12.2408084, 42.0813727], [12.2295721, 42.0826145], [12.222256, 42.0842009], [12.2220859, 42.0847969], [12.2208808, 42.0844947], [12.220233, 42.0852894], [12.2169707, 42.0856554], [12.2154493, 42.0870562], [12.2133314, 42.0876175], [12.2087006, 42.0906957], [12.2064364, 42.091165], [12.2016604, 42.093921], [12.2010131, 42.0957473], [12.1988992, 42.0959747], [12.1945635, 42.0980405], [12.1896622, 42.1021796], [12.1893669, 42.1066172], [12.1854587, 42.1075736], [12.1773253, 42.1135043], [12.1760328, 42.1156206], [12.1772469, 42.1197448], [12.1785858, 42.1213505], [12.1785126, 42.1229598], [12.1759582, 42.1256799], [12.1753563, 42.1294283], [12.1780815, 42.1309142], [12.1797565, 42.1338731], [12.182537, 42.1365216], [12.1873647, 42.1379456], [12.1869459, 42.1403414], [12.1886366, 42.1426394], [12.1905252, 42.143862], [12.1921087, 42.1478762], [12.2031144, 42.1537779], [12.2130857, 42.1557557], [12.2185787, 42.1577575], [12.230043, 42.158753], [12.2332266, 42.1585868], [12.2486012, 42.1543925], [12.2514275, 42.1590116], [12.2526046, 42.1599436], [12.2553342, 42.1608849], [12.2575659, 42.1606535], [12.2605739, 42.1585863], [12.2590804, 42.1563158], [12.2581397, 42.1521124], [12.2642991, 42.1489252], [12.265145, 42.1466301], [12.2688322, 42.1440555], [12.2719585, 42.1447633], [12.2751445, 42.1437547], [12.2828802, 42.1392885], [12.2853306, 42.1363807], [12.2839498, 42.1344028], [12.2852494, 42.1311836], [12.2853211, 42.1287709], [12.2840977, 42.1242777], [12.2817569, 42.1204618], [12.2803755, 42.1198178], [12.2816639, 42.1122173], [12.2802696, 42.1100265], [12.2800755, 42.1080218], [12.2772393, 42.106127], [12.2782636, 42.1026649], [12.2795587, 42.1007179], [12.2790419, 42.0967409], [12.2783409, 42.0961804], [12.2794147, 42.0960063], [12.2796452, 42.0944102], [12.2777678, 42.0933505], [12.2729479, 42.092942], [12.2698745, 42.09516], [12.2686977, 42.0944562]]]}}