{"type": "Feature", "properties": {"source": "OpenStreetMap (Overpass, natural=water relation)", "lake_id": "lake_maggiore", "retrieved": "2026-09-18", "note": "Phase 6 multi-lake shoreline; simplified ~40 m"}, "geometry": {"type": "Polygon", "coordinates": [[[8.5003389, 45.9381987], [8.5047117, 45.9367925], [8.5072598, 45.9367451], [8.5093611, 45.9389001], [8.5102588, 45.9381989], [8.5114403, 45.9393283], [8.5130879, 45.9397414], [8.5166003, 45.9375999], [8.5399152, 45.9308502], [8.5421128, 45.9284726], [8.5465137, 45.9253093], [8.5488322, 45.9216763], [8.5533222, 45.9202872], [8.5537727, 45.9207335], [8.5535484, 45.9202846], [8.5546353, 45.9202554], [8.554596, 45.9194552], [8.5563824, 45.9181473], [8.5568841, 45.9169773], [8.5607592, 45.9156421], [8.5615778, 45.9166331], [8.5616885, 45.9190142], [8.5664225, 45.92511], [8.5663895, 45.9271529], [8.5676738, 45.9284286], [8.5731989, 45.930145], [8.5702207, 45.932325], [8.5705405, 45.9325759], [8.5741977, 45.9312164], [8.5745725, 45.9316432], [8.5747092, 45.9328006], [8.5746887, 45.9329762], [8.5743366, 45.9314263], [8.5727991, 45.9321655], [8.5751659, 45.9342549], [8.5745219, 45.9347269], [8.5745199, 45.9341368], [8.5735663, 45.9343372], [8.5756856, 45.9358438], [8.5802872, 45.9373257], [8.5802323, 45.9380014], [8.5811272, 45.937648], [8.5819611, 45.9391348], [8.5895346, 45.9399203], [8.5914743, 45.941868], [8.6006555, 45.9458766], [8.6075303, 45.9510044], [8.6172947, 45.9559878], [8.6206935, 45.9585169], [8.6218614, 45.9599063], [8.6234567, 45.964853], [8.6250669, 45.9672113], [8.6263677, 45.9679537], [8.6284218, 45.9718603], [8.6350337, 45.9769219], [8.6356832, 45.9785358], [8.6407685, 45.9826823], [8.6413553, 45.985369], [8.6443102, 45.9884377], [8.6487065, 45.9909436], [8.6481994, 45.9909116], [8.6509206, 45.9913248], [8.6558217, 45.9976021], [8.6596152, 46.0054305], [8.6700552, 46.0135837], [8.6733944, 46.0189329], [8.6760225, 46.0206523], [8.6776526, 46.0203112], [8.6800284, 46.0184368], [8.6818064, 46.0188407], [8.6816113, 46.0193555], [8.6821551, 46.0194883], [8.6823427, 46.0189192], [8.6836164, 46.0194269], [8.6862514, 46.0228068], [8.695655, 46.0236747], [8.7000884, 46.0247006], [8.7029819, 46.0264429], [8.7043206, 46.0265638], [8.7073983, 46.029097], [8.7096796, 46.0296254], [8.7106049, 46.0304541], [8.7111053, 46.0327532], [8.710637, 46.035139], [8.7111444, 46.0360571], [8.707389, 46.0388672], [8.7077781, 46.0400155], [8.7069948, 46.0431581], [8.7048649, 46.0476902], [8.706933, 46.0530785], [8.7039929, 46.0565552], [8.704256, 46.0576108], [8.7008728, 46.05961], [8.700185, 46.0628719], [8.7006821, 46.0623165], [8.7005293, 46.0645919], [8.7009446, 46.0646241], [8.7003609, 46.0662799], [8.6996951, 46.066567], [8.7007889, 46.067054], [8.6994548, 46.0673135], [8.7008926, 46.0673148], [8.7003595, 46.0681044], [8.6988543, 46.0690605], [8.6950672, 46.0678982], [8.6948573, 46.0683325], [8.6981907, 46.0702094], [8.692998, 46.0723913], [8.6953835, 46.0764635], [8.693857, 46.0774479], [8.6930216, 46.0802348], [8.6932209, 46.0829834], [8.6912243, 46.0860033], [8.6918265, 46.0911598], [8.6907959, 46.0917541], [8.6928814, 46.093678], [8.6941906, 46.0963632], [8.6937837, 46.0989559], [8.6952429, 46.1005598], [8.6971618, 46.1012983], [8.6967341, 46.1021168], [8.6977789, 46.1045154], [8.7003189, 46.1064602], [8.7040935, 46.1113711], [8.7068763, 46.111903], [8.707766, 46.1133325], [8.7073522, 46.1146552], [8.708924, 46.1169563], [8.7140323, 46.1202815], [8.7133102, 46.1226328], [8.7151026, 46.1236707], [8.7169694, 46.1299219], [8.7183149, 46.1322923], [8.719679, 46.1332548], [8.7200142, 46.1348883], [8.7286515, 46.141639], [8.7315895, 46.1457815], [8.7346726, 46.1478633], [8.7475747, 46.1510194], [8.7526189, 46.1513706], [8.7600751, 46.1541628], [8.7617292, 46.1540814], [8.7622862, 46.1529224], [8.7634623, 46.1528267], [8.7667093, 46.1547557], [8.7705683, 46.1528297], [8.7701198, 46.1527236], [8.7710796, 46.1511675], [8.7740341, 46.1490562], [8.7774921, 46.1484602], [8.7831402, 46.1456259], [8.792029, 46.1456821], [8.7923108, 46.1478675], [8.7944533, 46.1474615], [8.7939992, 46.148429], [8.7948352, 46.1480582], [8.7953322, 46.1489897], [8.7969961, 46.1495869], [8.7988939, 46.1493823], [8.8028469, 46.1502513], [8.804753, 46.1524973], [8.8044813, 46.1539342], [8.8019909, 46.1537311], [8.8022052, 46.154177], [8.8007284, 46.1546269], [8.803689, 46.1545669], [8.8036371, 46.1579447], [8.8048151, 46.1583231], [8.8022038, 46.1584073], [8.8035009, 46.159289], [8.8045319, 46.1593344], [8.8047419, 46.1586851], [8.8046544, 46.1631915], [8.8043411, 46.1644027], [8.803474, 46.1644848], [8.8045038, 46.1648641], [8.8010997, 46.1694948], [8.8013264, 46.1705812], [8.8029135, 46.1714341], [8.8075736, 46.1708083], [8.8188416, 46.1728001], [8.8241445, 46.1752828], [8.8263338, 46.1748912], [8.830692, 46.1787887], [8.8327011, 46.1798282], [8.8404779, 46.1786136], [8.8415669, 46.1755147], [8.8465869, 46.1709347], [8.8482165, 46.171018], [8.8476467, 46.1703935], [8.8523698, 46.165113], [8.8545123, 46.1658263], [8.8543783, 46.166508], [8.8552312, 46.1668964], [8.8564951, 46.1668507], [8.8591438, 46.1721475], [8.8593485, 46.1701161], [8.8578071, 46.1675307], [8.8577328, 46.1658167], [8.8554682, 46.1651218], [8.8575597, 46.1644901], [8.8582947, 46.1655155], [8.858096, 46.1645985], [8.8554857, 46.1629083], [8.8542509, 46.1638579], [8.8530871, 46.1636133], [8.8547026, 46.1618168], [8.858397, 46.163033], [8.8591238, 46.1644866], [8.8604498, 46.1651852], [8.859256, 46.1643428], [8.858848, 46.1630946], [8.8617596, 46.1643203], [8.8642112, 46.1643388], [8.8609562, 46.1634926], [8.8559214, 46.160342], [8.8539558, 46.1600994], [8.8547808, 46.1596384], [8.8598924, 46.1610905], [8.8633937, 46.1604076], [8.8614481, 46.1600723], [8.8623548, 46.1590982], [8.8628152, 46.157589], [8.862364, 46.1586059], [8.8619058, 46.1577678], [8.8621138, 46.1589411], [8.8605182, 46.1609072], [8.8592332, 46.160388], [8.8603706, 46.1599644], [8.8605324, 46.1597122], [8.8590261, 46.160289], [8.8596549, 46.1570722], [8.8589503, 46.1573085], [8.8592149, 46.1592092], [8.8581095, 46.1602108], [8.8544338, 46.1594707], [8.8559667, 46.1580023], [8.8556916, 46.1574924], [8.8540724, 46.1577987], [8.8548947, 46.157054], [8.861715, 46.1568253], [8.8568362, 46.1566653], [8.8581961, 46.1559342], [8.8623684, 46.1559818], [8.8623233, 46.155429], [8.8583155, 46.1552246], [8.8549194, 46.1542137], [8.8565421, 46.1510012], [8.8587992, 46.1504358], [8.8612753, 46.1510703], [8.8626084, 46.1523482], [8.8627528, 46.153516], [8.8630178, 46.1531528], [8.863619, 46.1551074], [8.8639782, 46.155227], [8.8644066, 46.1545801], [8.8636884, 46.1543418], [8.8630005, 46.1512661], [8.8653736, 46.1516556], [8.8656474, 46.149752], [8.8585587, 46.1487564], [8.8557081, 46.1495197], [8.8538506, 46.1470266], [8.8456517, 46.1447366], [8.8409371, 46.1447211], [8.8383656, 46.1432914], [8.8381205, 46.1422505], [8.835133, 46.1410783], [8.8198658, 46.1393381], [8.8136466, 46.138034], [8.8123461, 46.1370152], [8.8075511, 46.1359246], [8.8041188, 46.1330846], [8.798653, 46.1309935], [8.7979703, 46.1291635], [8.7906048, 46.126545], [8.786549, 46.1234742], [8.7833225, 46.1234992], [8.7822702, 46.1222991], [8.7821886, 46.121002], [8.7734901, 46.1162266], [8.7703762, 46.1136823], [8.7689669, 46.1115893], [8.7588907, 46.1049354], [8.7559203, 46.1048943], [8.7550288, 46.1040273], [8.7528288, 46.1039762], [8.7513143, 46.1031957], [8.7417276, 46.1034778], [8.7376342, 46.102803], [8.7364091, 46.101167], [8.7363704, 46.0982199], [8.735248, 46.0951616], [8.7273699, 46.0886946], [8.7222788, 46.0858853], [8.7207653, 46.0836464], [8.7205024, 46.0819132], [8.7213066, 46.0796698], [8.7226994, 46.0797997], [8.7241889, 46.0762977], [8.7292659, 46.0722076], [8.7318375, 46.0685379], [8.7315723, 46.0654359], [8.7294408, 46.0612124], [8.7340392, 46.052163], [8.7318354, 46.0487863], [8.7321483, 46.0467124], [8.7339712, 46.0458815], [8.7321597, 46.0435264], [8.7317648, 46.0396375], [8.7359619, 46.0370311], [8.739626, 46.0361505], [8.7421275, 46.0360591], [8.7419994, 46.0365447], [8.7425933, 46.0351184], [8.7465273, 46.0331239], [8.7464187, 46.0314406], [8.7474711, 46.0312213], [8.7483368, 46.0294464], [8.7476972, 46.0283295], [8.7489873, 46.026992], [8.748559, 46.0261513], [8.7509974, 46.025254], [8.7507792, 46.024242], [8.7518153, 46.0220171], [8.7508713, 46.0217475], [8.7506606, 46.0201358], [8.7522027, 46.0179923], [8.7509619, 46.0149466], [8.7494301, 46.013272], [8.7481702, 46.00947], [8.7422515, 46.0039576], [8.7430177, 46.0040214], [8.7426991, 46.0036208], [8.7416666, 46.0036238], [8.742156, 46.0033421], [8.7414635, 46.0024919], [8.7346214, 45.9997664], [8.7339626, 45.9989082], [8.735398, 45.9995543], [8.7338646, 45.9979794], [8.7334587, 45.9981091], [8.7329688, 45.9979769], [8.7337578, 45.9978796], [8.7334399, 45.9973567], [8.7329356, 45.9978392], [8.7315132, 45.9972373], [8.7325515, 45.9975358], [8.7323567, 45.997014], [8.7306666, 45.9968648], [8.7240296, 45.9972436], [8.7225718, 45.9961544], [8.7221348, 45.996401], [8.7225489, 45.9958641], [8.7196176, 45.9931616], [8.7180365, 45.9904486], [8.7112766, 45.9889316], [8.7120122, 45.9832676], [8.7101512, 45.9792337], [8.7061553, 45.9767715], [8.7050454, 45.9752032], [8.6986309, 45.9720233], [8.6946801, 45.9686712], [8.6903375, 45.9665386], [8.6868874, 45.9649546], [8.6849643, 45.9650773], [8.6812815, 45.9638258], [8.679854, 45.9612158], [8.6750876, 45.9607374], [8.6730759, 45.958944], [8.6623613, 45.9540796], [8.6608479, 45.9522159], [8.6605547, 45.9507465], [8.661226, 45.9487935], [8.6602902, 45.9470596], [8.66146, 45.9459931], [8.6606345, 45.9426843], [8.6569879, 45.9412681], [8.6548598, 45.939578], [8.6521324, 45.9401778], [8.64878, 45.9393943], [8.6472188, 45.9378979], [8.6425233, 45.9358936], [8.639618, 45.9333518], [8.6390344, 45.9320901], [8.631946, 45.9268184], [8.6304417, 45.92685], [8.6280979, 45.9253603], [8.6237725, 45.9241662], [8.6229451, 45.9245073], [8.6169439, 45.9221494], [8.6146503, 45.9192556], [8.6114296, 45.9170605], [8.6106858, 45.9150375], [8.6144712, 45.9130682], [8.6166563, 45.9127882], [8.6177268, 45.9108435], [8.6192143, 45.9099461], [8.6164176, 45.9074695], [8.614552, 45.9076557], [8.6128802, 45.9065831], [8.6083228, 45.9065815], [8.6052939, 45.907393], [8.6028855, 45.9067823], [8.6011731, 45.9070422], [8.6001462, 45.9067318], [8.5982936, 45.9045873], [8.5978195, 45.902203], [8.596255, 45.9005838], [8.5962442, 45.8981252], [8.5952085, 45.8961775], [8.5943233, 45.8960295], [8.5948746, 45.8956597], [8.5937152, 45.8951945], [8.5941662, 45.8944924], [8.5932753, 45.8935211], [8.5934829, 45.8914341], [8.5981667, 45.8887754], [8.6001838, 45.8843163], [8.5991854, 45.8810237], [8.596581, 45.8797309], [8.5965269, 45.8777132], [8.5969452, 45.8765731], [8.5984215, 45.8759934], [8.6013977, 45.8730719], [8.6038832, 45.8696545], [8.6055628, 45.8660244], [8.605972, 45.8621107], [8.6081214, 45.8606812], [8.6083748, 45.8596552], [8.6107427, 45.8575692], [8.61079, 45.8563514], [8.610218, 45.8559248], [8.6102825, 45.8551028], [8.6100191, 45.8545414], [8.6101031, 45.8543591], [8.6115347, 45.8547707], [8.6141754, 45.8531784], [8.6177902, 45.8533616], [8.6188546, 45.8540408], [8.6200637, 45.8526245], [8.618833, 45.8517663], [8.6192113, 45.8499287], [8.6184521, 45.8497759], [8.6188568, 45.8487468], [8.6181056, 45.8484461], [8.6197071, 45.8482278], [8.6189754, 45.8476491], [8.6199121, 45.84673], [8.6194913, 45.8455083], [8.6219835, 45.8422733], [8.6213095, 45.8410243], [8.6227564, 45.8386633], [8.6220167, 45.8382718], [8.6217491, 45.8376552], [8.6227685, 45.8385409], [8.6227299, 45.8377145], [8.6235876, 45.8380233], [8.6230321, 45.8374148], [8.6238335, 45.8373266], [8.6240046, 45.8378609], [8.6239866, 45.8372128], [8.623083, 45.8369816], [8.623916, 45.8355799], [8.6228469, 45.8333525], [8.6237658, 45.8326248], [8.6243291, 45.8329988], [8.6263413, 45.8302036], [8.6267745, 45.8303831], [8.6262454, 45.8276271], [8.6245795, 45.8267659], [8.6260195, 45.8250647], [8.6252631, 45.8248264], [8.6240826, 45.8268596], [8.6230134, 45.826289], [8.6232461, 45.8251949], [8.622184, 45.8253555], [8.6177031, 45.8234537], [8.6139405, 45.8256022], [8.6122213, 45.8256815], [8.6114059, 45.8217736], [8.6065514, 45.818974], [8.6062404, 45.8181189], [8.6074012, 45.8156256], [8.6069832, 45.8127363], [8.6078889, 45.8105855], [8.6068581, 45.8067147], [8.6029192, 45.8047856], [8.6010363, 45.8019166], [8.5966464, 45.8000684], [8.595957, 45.7989712], [8.5932302, 45.798935], [8.5917465, 45.8001312], [8.5896872, 45.7984316], [8.5875284, 45.798938], [8.5850302, 45.7976329], [8.5832015, 45.7987579], [8.5807603, 45.7990653], [8.5794988, 45.8001509], [8.5780896, 45.8002166], [8.5778674, 45.8009168], [8.5762229, 45.8005339], [8.5754387, 45.801098], [8.5747555, 45.8005015], [8.5721737, 45.8008099], [8.5680034, 45.7985093], [8.5688128, 45.7946531], [8.566766, 45.7920184], [8.566857, 45.7908684], [8.5642291, 45.7857282], [8.5645952, 45.783304], [8.5632594, 45.7793251], [8.5638582, 45.7777928], [8.5662841, 45.7761729], [8.5675583, 45.7743956], [8.5691781, 45.770311], [8.573326, 45.7704992], [8.573083, 45.7708768], [8.5737198, 45.7710879], [8.5752124, 45.7707025], [8.5777739, 45.7711441], [8.5779238, 45.7707283], [8.5790483, 45.7712662], [8.5791819, 45.7707471], [8.5782946, 45.770538], [8.5792128, 45.7707295], [8.5790901, 45.7713134], [8.5797128, 45.7714201], [8.5818481, 45.7702385], [8.5845591, 45.7708542], [8.5842953, 45.7699791], [8.5830947, 45.7692817], [8.5815109, 45.7693636], [8.5787975, 45.7676376], [8.5790844, 45.765609], [8.5778291, 45.7642993], [8.5794725, 45.7625639], [8.580926, 45.7626726], [8.5814023, 45.7607012], [8.5825391, 45.7608454], [8.5820838, 45.7596549], [8.5835213, 45.7588613], [8.584325, 45.7574955], [8.5838726, 45.7548393], [8.5843103, 45.7543369], [8.5867386, 45.7551492], [8.5875428, 45.7544971], [8.588562, 45.7548551], [8.5903143, 45.7537375], [8.5921164, 45.7534955], [8.5929307, 45.7525586], [8.5960798, 45.7451971], [8.5949933, 45.7449856], [8.5959962, 45.7450327], [8.5961493, 45.7431161], [8.5971154, 45.7421287], [8.5964668, 45.7408036], [8.5970673, 45.7385898], [8.5965576, 45.7379963], [8.5975319, 45.736725], [8.5980036, 45.7332775], [8.6017901, 45.7342029], [8.6025403, 45.7350909], [8.6039704, 45.7351277], [8.6035603, 45.735576], [8.6041089, 45.7358344], [8.6058745, 45.7348054], [8.6069215, 45.733294], [8.6046231, 45.72994], [8.6056807, 45.7269292], [8.6112835, 45.7264401], [8.6168028, 45.7296987], [8.6193127, 45.7292063], [8.6199597, 45.7281183], [8.6196642, 45.7272148], [8.618495, 45.7264302], [8.6174755, 45.7238496], [8.61026, 45.7247747], [8.6017391, 45.7249266], [8.6014331, 45.7253728], [8.5970874, 45.7250145], [8.5967444, 45.7256947], [8.5975213, 45.7260961], [8.5951951, 45.7250366], [8.5940359, 45.7238138], [8.5882639, 45.7229669], [8.5865466, 45.7234032], [8.584898, 45.7225683], [8.5862584, 45.7236777], [8.58467, 45.7237818], [8.5830485, 45.7265442], [8.5840624, 45.7283512], [8.5819824, 45.7278846], [8.584113, 45.7284747], [8.5830174, 45.7289198], [8.5829323, 45.7299542], [8.581299, 45.7318057], [8.5797645, 45.7323302], [8.580892, 45.7323409], [8.5802819, 45.7338076], [8.5807182, 45.7351349], [8.5795447, 45.7365456], [8.5802232, 45.7381634], [8.5790907, 45.7383354], [8.5760942, 45.7412663], [8.5721942, 45.7420978], [8.5705307, 45.743416], [8.5702623, 45.7445929], [8.5669048, 45.7458861], [8.566954, 45.7463969], [8.5660936, 45.7462778], [8.5660388, 45.7468352], [8.566656, 45.7468687], [8.5661294, 45.7471192], [8.5668465, 45.7472984], [8.5659424, 45.7474765], [8.5660215, 45.7478419], [8.566972, 45.747407], [8.5670769, 45.7483107], [8.5662341, 45.7480539], [8.5662931, 45.7486114], [8.5680211, 45.7512074], [8.5678272, 45.7531592], [8.5687936, 45.7548016], [8.5663102, 45.7544462], [8.5615987, 45.7562623], [8.5609522, 45.755941], [8.5617859, 45.7595806], [8.5626417, 45.7603116], [8.5620527, 45.7616942], [8.5596498, 45.7637283], [8.5537113, 45.7661333], [8.5525914, 45.767734], [8.5488972, 45.769314], [8.5456319, 45.7722465], [8.5452981, 45.7743725], [8.5436423, 45.7753213], [8.5426428, 45.777001], [8.5424198, 45.7809995], [8.5418706, 45.7837744], [8.5409875, 45.7846195], [8.5404799, 45.7869862], [8.5408249, 45.7890666], [8.5398395, 45.7916929], [8.5417337, 45.7933335], [8.5400562, 45.7953148], [8.5381201, 45.7963142], [8.537772, 45.7986334], [8.5415774, 45.8007613], [8.5410869, 45.806395], [8.5436625, 45.8077605], [8.5444199, 45.8091129], [8.5437122, 45.8111628], [8.5468953, 45.8158219], [8.5483418, 45.815978], [8.5513086, 45.8136997], [8.5581686, 45.8142711], [8.5662941, 45.8213228], [8.5670305, 45.8233693], [8.5669998, 45.8267679], [8.5651829, 45.8306921], [8.5733135, 45.8390067], [8.574043, 45.8408143], [8.5735911, 45.8428157], [8.5701014, 45.8507268], [8.5667783, 45.8661827], [8.5644509, 45.8713263], [8.5631057, 45.8720314], [8.5581951, 45.8774083], [8.5526527, 45.880968], [8.5444833, 45.8835979], [8.5420441, 45.8838148], [8.541446, 45.884048], [8.5419405, 45.8846288], [8.5404278, 45.885368], [8.5359773, 45.8860522], [8.525447, 45.8911134], [8.523181, 45.8900878], [8.5205895, 45.8905813], [8.5194333, 45.8914511], [8.518945, 45.8929968], [8.5166587, 45.8935281], [8.5149661, 45.8963918], [8.5101326, 45.9005078], [8.5090156, 45.9021306], [8.5089098, 45.9036436], [8.5063647, 45.9048572], [8.5057346, 45.908178], [8.5070865, 45.909503], [8.5066916, 45.9121074], [8.503044, 45.915716], [8.5, 45.91691306509317], [8.5003389, 45.9381987]], [[8.5189604, 45.9023555], [8.5202825, 45.9001534], [8.522049, 45.8999164], [8.5189604, 45.9023555]], [[8.5237224, 45.8984969], [8.5238499, 45.8982276], [8.5239789, 45.898513], [8.5237224, 45.8984969]], [[8.5251687, 45.8967926], [8.5259978, 45.8948037], [8.5286294, 45.894133], [8.5287042, 45.8953937], [8.5251687, 45.8967926]], [[8.535944, 45.910776], [8.5387105, 45.9104355], [8.5400611, 45.9118072], [8.539462, 45.9125436], [8.5379054, 45.9127919], [8.535944, 45.910776]], [[8.5542614, 45.9165791], [8.556021, 45.9165717], [8.5562248, 45.917027], [8.5546262, 45.9175644], [8.5542614, 45.9165791]], [[8.5553938, 45.9159924], [8.5555588, 45.9158142], [8.5557023, 45.9158655], [8.5553938, 45.9159924]], [[8.5555601, 45.9160838], [8.5556969, 45.9160064], [8.5557385, 45.9160502], [8.5555601, 45.9160838]], [[8.5556547, 45.9159299], [8.5556808, 45.9159028], [8.5557143, 45.9159252], [8.5556547, 45.9159299]], [[8.577742, 45.7696185], [8.5772534, 45.7689663], [8.5786834, 45.7690142], [8.577742, 45.7696185]], [[8.703303, 46.0235088], [8.7038218, 46.0235393], [8.7041843, 46.023813], [8.7037691, 46.0237985], [8.703303, 46.0235088]], [[8.7045415, 46.0234762], [8.7055936, 46.0235737], [8.7058574, 46.0237786], [8.7049495, 46.0238928], [8.7045415, 46.0234762]], [[8.7066827, 46.0233026], [8.7067115, 46.023188], [8.70696, 46.0232972], [8.7066827, 46.0233026]], [[8.7338246, 46.1310951], [8.7361429, 46.1318687], [8.7367255, 46.1330247], [8.7349793, 46.1330142], [8.7338246, 46.1310951]], [[8.7352386, 46.1340406], [8.7357751, 46.1339247], [8.7367608, 46.1352611], [8.7362941, 46.1352602], [8.7352386, 46.1340406]], [[8.8030386, 46.1584666], [8.803811, 46.1584437], [8.8040358, 46.1586334], [8.8037091, 46.1587809], [8.8030386, 46.1584666]], [[8.8051019, 46.160002], [8.8054425, 46.1596666], [8.8053326, 46.1600447], [8.8051019, 46.160002]], [[8.8546932, 46.1563508], [8.85564, 46.1556348], [8.8571493, 46.1558111], [8.8546932, 46.1563508]], [[8.8558819, 46.1640355], [8.8554185, 46.164121], [8.8554157, 46.163819], [8.8558819, 46.1640355]], [[8.8558879, 46.1564896], [8.857287, 46.1558755], [8.8579567, 46.1560238], [8.8564352, 46.1567689], [8.8558879, 46.1564896]], [[8.856667, 46.1497824], [8.8584611, 46.1494324], [8.85984, 46.1499899], [8.8570556, 46.1502903], [8.856667, 46.1497824]], [[8.8608739, 46.149527], [8.8624297, 46.149816], [8.8627512, 46.1503788], [8.8619194, 46.1504999], [8.8608739, 46.149527]], [[8.8632355, 46.149939], [8.8640059, 46.1498492], [8.865152, 46.1501128], [8.8640939, 46.1505391], [8.8632355, 46.149939]]]}}